NORAD_CAT_ID,OBJECT_NAME,OBJECT_TYPE,EPOCH,MEAN_MOTION,ECCENTRICITY,INCLINATION,RA_OF_ASC_NODE,ARG_OF_PERICENTER,MEAN_ANOMALY,BSTAR,MEAN_MOTION_DOT,MEAN_MOTION_DDOT,TLE_LINE0,TLE_LINE1,TLE_LINE2,SEMIMAJOR_AXIS,PERIOD,APOGEE,PERIGEE,DECAYED
54006.0,STARLINK-5096,PAYLOAD,2023-05-27 01:49:46,15.08834776,0.0001328,53.2166,101.9367,92.4698,267.6446,7.2204e-05,8.61e-06,0.0,0 STARLINK-5096,1 54006U 22125AU  23147.07623452  .00000861  00000-0  72204-4 0  9997,2 54006  53.2166 101.9367 0001328  92.4698 267.6446 15.08834776 35898,6917.896,95.438,540.68,538.843,0.0
54006.0,STARLINK-5096,PAYLOAD,2023-05-27 14:32:52,15.08832833,0.0001325,53.2166,99.5572,87.5392,272.5752,5.8745e-05,6.47e-06,0.0,0 STARLINK-5096,1 54006U 22125AU  23147.60615781  .00000647  00000-0  58745-4 0  9998,2 54006  53.2166  99.5572 0001325  87.5392 272.5752 15.08832833 35911,6917.902,95.438,540.684,538.851,0.0
54006.0,STARLINK-5096,PAYLOAD,2023-05-28 03:15:57,15.08839053,0.0001325,53.2168,97.1789,92.1795,267.9348,-1.7804e-06,-3.16e-06,0.0,0 STARLINK-5096,1 54006U 22125AU  23148.13607641 -.00000316  00000-0 -17804-5 0  9990,2 54006  53.2168  97.1789 0001325  92.1795 267.9348 15.08839053 36052,6917.883,95.438,540.665,538.832,0.0
54006.0,STARLINK-5096,PAYLOAD,2023-05-28 20:45:11,15.08841915,0.0001301,53.2174,93.9079,91.2403,268.8739,6.1045e-05,6.84e-06,0.0,0 STARLINK-5096,1 54006U 22125AU  23148.86471327  .00000684  00000-0  61045-4 0  9991,2 54006  53.2174  93.9079 0001301  91.2403 268.8739 15.08841915 36105,6917.875,95.437,540.64,538.84,0.0
54006.0,STARLINK-5096,PAYLOAD,2023-05-29 03:06:43,15.08848312,0.0001219,53.2171,92.7188,89.6108,270.5023,0.00011557,1.552e-05,0.0,0 STARLINK-5096,1 54006U 22125AU  23149.12966716  .00001552  00000-0  11557-3 0  9999,2 54006  53.2171  92.7188 0001219  89.6108 270.5023 15.08848312 36206,6917.855,95.437,540.563,538.877,0.0
54006.0,STARLINK-5096,PAYLOAD,2023-05-29 20:35:59,15.08831425,0.0001117,53.2169,89.4494,85.8139,274.2981,3.1303e-05,2.1e-06,0.0,0 STARLINK-5096,1 54006U 22125AU  23149.85832205  .00000210  00000-0  31303-4 0  9996,2 54006  53.2169  89.4494 0001117  85.8139 274.2981 15.08831425 36251,6917.907,95.438,540.544,538.999,0.0
54006.0,STARLINK-5096,PAYLOAD,2023-05-30 02:57:31,15.08832095,0.0001171,53.2175,88.2589,86.0408,274.0718,3.8603e-05,3.26e-06,0.0,0 STARLINK-5096,1 54006U 22125AU  23150.12328304  .00000326  00000-0  38603-4 0  9996,2 54006  53.2175  88.2589 0001171  86.0408 274.0718 15.08832095 36353,6917.905,95.438,540.58,538.959,0.0
54006.0,STARLINK-5096,PAYLOAD,2023-05-31 02:48:18,15.08843298,0.0001086,53.2175,83.7998,89.9609,270.1507,1.4352e-05,-5.9e-07,0.0,0 STARLINK-5096,1 54006U 22125AU  23151.11687828 -.00000059  00000-0  14352-4 0  9994,2 54006  53.2175  83.7998 0001086  89.9609 270.1507 15.08843298 36504,6917.87,95.437,540.487,538.984,0.0
54006.0,STARLINK-5096,PAYLOAD,2023-05-31 05:59:04,15.08847012,0.0001144,53.2177,83.2041,89.5798,270.5325,5.6504e-05,6.12e-06,0.0,0 STARLINK-5096,1 54006U 22125AU  23151.24935471  .00000612  00000-0  56504-4 0  9997,2 54006  53.2177  83.2041 0001144  89.5798 270.5325 15.08847012 36465,6917.859,95.437,540.515,538.933,0.0
54006.0,STARLINK-5096,PAYLOAD,2023-06-01 02:39:05,15.08837589,0.0001127,53.2172,79.3393,104.5864,255.5253,0.00010798,1.431e-05,0.0,0 STARLINK-5096,1 54006U 22125AU  23152.11048111  .00001431  00000-0  10798-3 0  9994,2 54006  53.2172  79.3393 0001127 104.5864 255.5253 15.08837589 36651,6917.888,95.438,540.532,538.973,0.0
54006.0,STARLINK-5096,PAYLOAD,2023-06-01 04:14:28,15.08838514,0.0001132,53.2171,79.042,105.0132,255.0986,0.00011532,1.548e-05,0.0,0 STARLINK-5096,1 54006U 22125AU  23152.17672066  .00001548  00000-0  11532-3 0  9998,2 54006  53.2171  79.0420 0001132 105.0132 255.0986 15.08838514 36600,6917.885,95.438,540.533,538.967,0.0
54006.0,STARLINK-5096,PAYLOAD,2023-06-02 02:29:52,15.08847773,0.0001186,53.2177,74.8772,92.6137,267.4991,5.5729e-05,5.99e-06,0.0,0 STARLINK-5096,1 54006U 22125AU  23153.10407712  .00000599  00000-0  55729-4 0  9998,2 54006  53.2177  74.8772 0001186  92.6137 267.4991 15.08847773 36749,6917.857,95.437,540.542,538.901,0.0
54006.0,STARLINK-5096,PAYLOAD,2023-06-02 18:23:44,15.08834047,0.0001172,53.2164,71.907,92.0425,268.0701,3.6193e-05,2.88e-06,0.0,0 STARLINK-5096,1 54006U 22125AU  23153.76648706  .00000288  00000-0  36193-4 0  9999,2 54006  53.2164  71.9070 0001172  92.0425 268.0701 15.08834047 36907,6917.899,95.438,540.574,538.953,0.0
54006.0,STARLINK-5096,PAYLOAD,2023-06-03 21:25:17,15.08844209,0.0001204,53.2181,66.8482,86.6599,273.4531,5.3337e-05,5.61e-06,0.0,0 STARLINK-5096,1 54006U 22125AU  23154.89256185  .00000561  00000-0  53337-4 0  9993,2 54006  53.2181  66.8482 0001204  86.6599 273.4531 15.08844209 37018,6917.868,95.437,540.565,538.9,0.0
54006.0,STARLINK-5096,PAYLOAD,2023-06-04 00:36:03,15.08848991,0.0001198,53.2174,66.2546,85.3258,274.7871,9.0423e-05,1.152e-05,0.0,0 STARLINK-5096,1 54006U 22125AU  23155.02503748  .00001152  00000-0  90423-4 0  9993,2 54006  53.2174  66.2546 0001198  85.3258 274.7871 15.08848991 37096,6917.853,95.437,540.547,538.889,0.0
54006.0,STARLINK-5096,PAYLOAD,2023-06-04 13:19:08,15.08839803,0.0001217,53.2175,63.875,87.332,272.7811,0.00011137,1.485e-05,0.0,0 STARLINK-5096,1 54006U 22125AU  23155.55496153  .00001485  00000-0  11137-3 0  9995,2 54006  53.2175  63.8750 0001217  87.3320 272.7811 15.08839803 37118,6917.881,95.438,540.588,538.904,0.0
54006.0,STARLINK-5096,PAYLOAD,2023-06-04 18:05:18,15.08836402,0.0001197,53.2174,62.9832,85.1124,275.0005,7.2411e-05,8.65e-06,0.0,0 STARLINK-5096,1 54006U 22125AU  23155.75368521  .00000865  00000-0  72411-4 0  9998,2 54006  53.2174  62.9832 0001197  85.1124 275.0005 15.08836402 37206,6917.891,95.438,540.584,538.928,0.0
54006.0,STARLINK-5096,PAYLOAD,2023-06-04 21:16:04,15.08837809,0.0001178,53.2177,62.3887,84.0579,276.0547,8.2666e-05,1.028e-05,0.0,0 STARLINK-5096,1 54006U 22125AU  23155.88616426  .00001028  00000-0  82666-4 0  9997,2 54006  53.2177  62.3887 0001178  84.0579 276.0547 15.08837809 37163,6917.887,95.438,540.567,538.937,0.0
54006.0,STARLINK-5096,PAYLOAD,2023-06-05 03:37:36,15.08843329,0.0001169,53.2176,61.1985,94.6557,265.4569,0.00013333,1.835e-05,0.0,0 STARLINK-5096,1 54006U 22125AU  23156.15111873  .00001835  00000-0  13333-3 0  9994,2 54006  53.2176  61.1985 0001169  94.6557 265.4569 15.08843329 37262,6917.87,95.437,540.544,538.927,0.0
54006.0,STARLINK-5096,PAYLOAD,2023-06-06 00:17:38,15.08839893,0.0001209,53.2182,57.3312,92.465,267.6481,-4.9923e-05,-1.082e-05,0.0,0 STARLINK-5096,1 54006U 22125AU  23157.01224691 -.00001082  00000-0 -49923-4 0  9994,2 54006  53.2182  57.3312 0001209  92.4650 267.6481 15.08839893 37397,6917.881,95.438,540.582,538.909,0.0
54006.0,STARLINK-5096,PAYLOAD,2023-06-06 17:46:52,15.08836959,0.000111,53.2176,54.0633,89.1685,270.9434,4.6517e-05,4.53e-06,0.0,0 STARLINK-5096,1 54006U 22125AU  23157.74088650  .00000453  00000-0  46517-4 0  9992,2 54006  53.2176  54.0633 0001110  89.1685 270.9434 15.08836959 37443,6917.89,95.438,540.523,538.987,0.0
54006.0,STARLINK-5096,PAYLOAD,2023-06-06 22:33:01,15.08842236,0.0001129,53.2175,53.1715,85.4078,274.7043,9.2663e-05,1.187e-05,0.0,0 STARLINK-5096,1 54006U 22125AU  23157.93960290  .00001187  00000-0  92663-4 0  9990,2 54006  53.2175  53.1715 0001129  85.4078 274.7043 15.08842236 37474,6917.874,95.437,540.52,538.958,0.0
54006.0,STARLINK-5096,PAYLOAD,2023-06-07 17:37:40,15.08841499,0.0001123,53.2169,49.6033,82.9875,277.1244,-7.2474e-05,-1.441e-05,0.0,0 STARLINK-5096,1 54006U 22125AU  23158.73449215 -.00001441  00000-0 -72474-4 0  9991,2 54006  53.2169  49.6033 0001123  82.9875 277.1244 15.08841499 37651,6917.876,95.437,540.518,538.964,0.0
54006.0,STARLINK-5096,PAYLOAD,2023-06-07 20:48:26,15.08834347,0.0001188,53.2177,49.008,85.1545,274.9582,6.5163e-05,7.49e-06,0.0,0 STARLINK-5096,1 54006U 22125AU  23158.86697144  .00000749  00000-0  65163-4 0  9996,2 54006  53.2177  49.0080 0001188  85.1545 274.9582 15.08834347 37616,6917.898,95.438,540.585,538.941,0.0
54006.0,STARLINK-5096,PAYLOAD,2023-06-08 03:09:58,15.08841821,0.0001168,53.2175,47.819,87.6223,272.4903,5.8671e-05,6.46e-06,0.0,0 STARLINK-5096,1 54006U 22125AU  23159.13192751  .00000646  00000-0  58671-4 0  9993,2 54006  53.2175  47.8190 0001168  87.6223 272.4903 15.08841821 37659,6917.875,95.437,540.548,538.932,0.0
54006.0,STARLINK-5096,PAYLOAD,2023-06-08 23:50:00,15.08815852,0.0001303,53.2174,43.9527,95.9618,264.1522,0.00043449,6.629e-05,0.0,0 STARLINK-5096,1 54006U 22125AU  23159.99305557  .00006629  00000-0  43449-3 0  9990,2 54006  53.2174  43.9527 0001303  95.9618 264.1522 15.08815852 37841,6917.954,95.439,540.721,538.918,0.0
54006.0,STARLINK-5096,PAYLOAD,2023-06-09 09:22:18,15.08837324,0.0001068,53.2177,42.1683,90.0884,270.023,8.649e-05,1.089e-05,0.0,0 STARLINK-5096,1 54006U 22125AU  23160.39049147  .00001089  00000-0  86490-4 0  9995,2 54006  53.2177  42.1683 0001068  90.0884 270.0230 15.08837324 37904,6917.889,95.438,540.492,539.015,0.0
54006.0,STARLINK-5096,PAYLOAD,2023-06-09 22:05:23,15.08837951,0.0001048,53.2179,39.7894,91.6094,268.5018,4.9275e-05,4.96e-06,0.0,0 STARLINK-5096,1 54006U 22125AU  23160.92041327  .00000496  00000-0  49275-4 0  9997,2 54006  53.2179  39.7894 0001048  91.6094 268.5018 15.08837951 37924,6917.887,95.438,540.477,539.027,0.0
54006.0,STARLINK-5096,PAYLOAD,2023-06-10 09:13:05,15.08839678,0.0001087,53.2177,37.7079,91.8784,268.2332,3.366e-05,2.48e-06,0.0,0 STARLINK-5096,1 54006U 22125AU  23161.38409303  .00000248  00000-0  33660-4 0  9996,2 54006  53.2177  37.7079 0001087  91.8784 268.2332 15.08839678 37997,6917.881,95.438,540.498,538.994,0.0
54006.0,STARLINK-5096,PAYLOAD,2023-06-10 15:34:38,15.08837333,0.0001067,53.2178,36.518,99.1003,261.011,6.1509e-05,6.91e-06,0.0,0 STARLINK-5096,1 54006U 22125AU  23161.64905373  .00000691  00000-0  61509-4 0  9998,2 54006  53.2178  36.5180 0001067  99.1003 261.0110 15.08837333 38094,6917.889,95.438,540.492,539.015,0.0
